[
    {
        "Altitude(m)": 717882.2393815654,
        "Argument of Periapsis(deg)": 0.007973084830638947,
        "Eccentricity": 0.0,
        "Inclination(deg)": 45.0,
        "Latitude(deg)": -45.153919608503436,
        "Longitude(deg)": 39.3254785295515,
        "Mean Anomaly(deg)": -90.10854834676347,
        "RAAN(deg)": 229.99247364097926,
        "Satellite Name": "Constellation 1 1028",
        "Satellite Number": 1028,
        "Semi-Major Axis(m)": 7083131.272910544,
        "Time(s)": 133
    },
    {
        "Altitude(m)": 717882.2623893813,
        "Argument of Periapsis(deg)": 0.008033032836884352,
        "Eccentricity": 0.0,
        "Inclination(deg)": 45.0,
        "Latitude(deg)": -45.153993754659886,
        "Longitude(deg)": 39.40700697744401,
        "Mean Anomaly(deg)": -90.04784720651354,
        "RAAN(deg)": 229.9924170518137,
        "Satellite Name": "Constellation 1 1028",
        "Satellite Number": 1028,
        "Semi-Major Axis(m)": 7083131.272910544,
        "Time(s)": 134
    },
    {
        "Altitude(m)": 717882.2589903378,
        "Argument of Periapsis(deg)": 0.008092980843129758,
        "Eccentricity": 0.0,
        "Inclination(deg)": 45.0,
        "Latitude(deg)": -45.154003715040574,
        "Longitude(deg)": 39.488535551209125,
        "Mean Anomaly(deg)": -89.98714606626356,
        "RAAN(deg)": 229.99236046264815,
        "Satellite Name": "Constellation 1 1028",
        "Satellite Number": 1028,
        "Semi-Major Axis(m)": 7083131.272910544,
        "Time(s)": 135
    },
    {
        "Altitude(m)": 717882.2291844304,
        "Argument of Periapsis(deg)": 0.008152928849375162,
        "Eccentricity": 0.0,
        "Inclination(deg)": 45.0,
        "Latitude(deg)": -45.15394948960102,
        "Longitude(deg)": 39.57006405900221,
        "Mean Anomaly(deg)": -89.92644492601377,
        "RAAN(deg)": 229.9923038734825,
        "Satellite Name": "Constellation 1 1028",
        "Satellite Number": 1028,
        "Semi-Major Axis(m)": 7083131.272910544,
        "Time(s)": 136
    },
    {
        "Altitude(m)": 717882.1729717498,
        "Argument of Periapsis(deg)": 0.008212876855620568,
        "Eccentricity": 0.0,
        "Inclination(deg)": 45.0,
        "Latitude(deg)": -45.15383107858101,
        "Longitude(deg)": 39.65159230898077,
        "Mean Anomaly(deg)": -89.86574378576381,
        "RAAN(deg)": 229.99224728431696,
        "Satellite Name": "Constellation 1 1028",
        "Satellite Number": 1028,
        "Semi-Major Axis(m)": 7083131.272910544,
        "Time(s)": 137
    },
    {
        "Altitude(m)": 717882.0903524817,
        "Argument of Periapsis(deg)": 0.008272824861865974,
        "Eccentricity": 0.0,
        "Inclination(deg)": 45.0,
        "Latitude(deg)": -45.15364848250473,
        "Longitude(deg)": 39.73312010930587,
        "Mean Anomaly(deg)": -89.80504264551385,
        "RAAN(deg)": 229.9921906951514,
        "Satellite Name": "Constellation 1 1028",
        "Satellite Number": 1028,
        "Semi-Major Axis(m)": 7083131.272910544,
        "Time(s)": 138
    },
    {
        "Altitude(m)": 717881.9813269135,
        "Argument of Periapsis(deg)": 0.00833277286811138,
        "Eccentricity": 0.0,
        "Inclination(deg)": 45.0,
        "Latitude(deg)": -45.1534017021807,
        "Longitude(deg)": 39.81464726814692,
        "Mean Anomaly(deg)": -89.74434150526412,
        "RAAN(deg)": 229.99213410598585,
        "Satellite Name": "Constellation 1 1028",
        "Satellite Number": 1028,
        "Semi-Major Axis(m)": 7083131.272910544,
        "Time(s)": 139
    },
    {
        "Altitude(m)": 717881.8458954305,
        "Argument of Periapsis(deg)": 0.008392720874356788,
        "Eccentricity": 0.0,
        "Inclination(deg)": 45.0,
        "Latitude(deg)": -45.15309073870181,
        "Longitude(deg)": 39.89617359368542,
        "Mean Anomaly(deg)": -89.68364036501416,
        "RAAN(deg)": 229.9920775168203,
        "Satellite Name": "Constellation 1 1028",
        "Satellite Number": 1028,
        "Semi-Major Axis(m)": 7083131.272910544,
        "Time(s)": 140
    },
    {
        "Altitude(m)": 717881.684058512,
        "Argument of Periapsis(deg)": 0.008452668880602192,
        "Eccentricity": 0.0,
        "Inclination(deg)": 45.0,
        "Latitude(deg)": -45.15271559344552,
        "Longitude(deg)": 39.97769872602026,
        "Mean Anomaly(deg)": -89.62293922476421,
        "RAAN(deg)": 229.9920209276547,
        "Satellite Name": "Constellation 1 1028",
        "Satellite Number": 1028,
        "Semi-Major Axis(m)": 7083131.272910544,
        "Time(s)": 141
    },
    {
        "Altitude(m)": 717881.4958167339,
        "Argument of Periapsis(deg)": 0.008512616886847598,
        "Eccentricity": 0.0,
        "Inclination(deg)": 45.0,
        "Latitude(deg)": -45.152276268072704,
        "Longitude(deg)": 40.05922280955932,
        "Mean Anomaly(deg)": -89.5622380845143,
        "RAAN(deg)": 229.9919643384891,
        "Satellite Name": "Constellation 1 1028",
        "Satellite Number": 1028,
        "Semi-Major Axis(m)": 7083131.272910544,
        "Time(s)": 142
    },
    {
        "Altitude(m)": 717881.2811707748,
        "Argument of Periapsis(deg)": 0.008572564893093004,
        "Eccentricity": 0.0,
        "Inclination(deg)": 45.0,
        "Latitude(deg)": -45.15177276452939,
        "Longitude(deg)": 40.14074548444186,
        "Mean Anomaly(deg)": -89.50153694426447,
        "RAAN(deg)": 229.99190774932356,
        "Satellite Name": "Constellation 1 1028",
        "Satellite Number": 1028,
        "Semi-Major Axis(m)": 7083131.272910544,
        "Time(s)": 143
    },
    {
        "Altitude(m)": 717881.0401214078,
        "Argument of Periapsis(deg)": 0.008632512899338408,
        "Eccentricity": 0.0,
        "Inclination(deg)": 45.0,
        "Latitude(deg)": -45.15120508504543,
        "Longitude(deg)": 40.22226655892952,
        "Mean Anomaly(deg)": -89.44083580401451,
        "RAAN(deg)": 229.991851160158,
        "Satellite Name": "Constellation 1 1028",
        "Satellite Number": 1028,
        "Semi-Major Axis(m)": 7083131.272910544,
        "Time(s)": 144
    },
    {
        "Altitude(m)": 717880.7726695042,
        "Argument of Periapsis(deg)": 0.008692460905583814,
        "Eccentricity": 0.0,
        "Inclination(deg)": 45.0,
        "Latitude(deg)": -45.15057323213493,
        "Longitude(deg)": 40.30378584131211,
        "Mean Anomaly(deg)": -89.38013466376458,
        "RAAN(deg)": 229.99179457099245,
        "Satellite Name": "Constellation 1 1028",
        "Satellite Number": 1028,
        "Semi-Major Axis(m)": 7083131.272910544,
        "Time(s)": 145
    },
    {
        "Altitude(m)": 717880.4788160314,
        "Argument of Periapsis(deg)": 0.00875240891182922,
        "Eccentricity": 0.0,
        "Inclination(deg)": 45.0,
        "Latitude(deg)": -45.14987720859605,
        "Longitude(deg)": 40.38530313991141,
        "Mean Anomaly(deg)": -89.31943352351482,
        "RAAN(deg)": 229.99173798182684,
        "Satellite Name": "Constellation 1 1028",
        "Satellite Number": 1028,
        "Semi-Major Axis(m)": 7083131.272910544,
        "Time(s)": 146
    },
    {
        "Altitude(m)": 717880.1585620577,
        "Argument of Periapsis(deg)": 0.008812356918074627,
        "Eccentricity": 0.0,
        "Inclination(deg)": 45.0,
        "Latitude(deg)": -45.14911701751101,
        "Longitude(deg)": 40.466818263085656,
        "Mean Anomaly(deg)": -89.2587323832648,
        "RAAN(deg)": 229.99168139266126,
        "Satellite Name": "Constellation 1 1028",
        "Satellite Number": 1028,
        "Semi-Major Axis(m)": 7083131.272910544,
        "Time(s)": 147
    },
    {
        "Altitude(m)": 717879.8119087445,
        "Argument of Periapsis(deg)": 0.008872304924320031,
        "Eccentricity": 0.0,
        "Inclination(deg)": 45.0,
        "Latitude(deg)": -45.14829266224621,
        "Longitude(deg)": 40.54833085113411,
        "Mean Anomaly(deg)": -89.19803124301485,
        "RAAN(deg)": 229.9916248034957,
        "Satellite Name": "Constellation 1 1028",
        "Satellite Number": 1028,
        "Semi-Major Axis(m)": 7083131.272910544,
        "Time(s)": 148
    },
    {
        "Altitude(m)": 717879.4388573542,
        "Argument of Periapsis(deg)": 0.008932252930565437,
        "Eccentricity": 0.0,
        "Inclination(deg)": 45.0,
        "Latitude(deg)": -45.14740414645131,
        "Longitude(deg)": 40.62984104868939,
        "Mean Anomaly(deg)": -89.13733010276499,
        "RAAN(deg)": 229.99156821433016,
        "Satellite Name": "Constellation 1 1028",
        "Satellite Number": 1028,
        "Semi-Major Axis(m)": 7083131.272910544,
        "Time(s)": 149
    },
    {
        "Altitude(m)": 717879.039409244,
        "Argument of Periapsis(deg)": 0.008992200936810843,
        "Eccentricity": 0.0,
        "Inclination(deg)": 45.0,
        "Latitude(deg)": -45.14645147406047,
        "Longitude(deg)": 40.711348496139514,
        "Mean Anomaly(deg)": -89.07662896251516,
        "RAAN(deg)": 229.99151162516455,
        "Satellite Name": "Constellation 1 1028",
        "Satellite Number": 1028,
        "Semi-Major Axis(m)": 7083131.272910544,
        "Time(s)": 150
    },
    {
        "Altitude(m)": 717878.6135658703,
        "Argument of Periapsis(deg)": 0.009052148943056249,
        "Eccentricity": 0.0,
        "Inclination(deg)": 45.0,
        "Latitude(deg)": -45.14543464929133,
        "Longitude(deg)": 40.79285300201854,
        "Mean Anomaly(deg)": -89.0159278222652,
        "RAAN(deg)": 229.991455035999,
        "Satellite Name": "Constellation 1 1028",
        "Satellite Number": 1028,
        "Semi-Major Axis(m)": 7083131.272910544,
        "Time(s)": 151
    }
]